{"type": "FeatureCollection", "features": [ {"type": "Feature", "properties": {"norad_id": 34141, "name": "COSMOS 2251 DEB", "group": "cosmos-2251-debris", "lat": 21.651197143283458, "lon": 30.836208665527515, "alt_km": 725.6524504545696, "timestamp": "2025-12-15T04:01:20.845823+00:00", "meta": {"OBJECT_NAME": "COSMOS 2251 DEB", "OBJECT_ID": "1993-036LN", "EPOCH": "2025-12-14T05:00:55.689696", "MEAN_MOTION": 14.49264225, "ECCENTRICITY": 0.00470328, "INCLINATION": 74.0114, "RA_OF_ASC_NODE": 26.1009, "ARG_OF_PERICENTER": 111.8746, "MEAN_ANOMALY": 311.8691, "EPHEMERIS_TYPE": 0, "CLASSIFICATION_TYPE": "U", "NORAD_CAT_ID": 34141, "ELEMENT_SET_NO": 999, "REV_AT_EPOCH": 87715, "BSTAR": 0.001557465, "MEAN_MOTION_DOT": 6.001e-05, "MEAN_MOTION_DDOT": 0}, "tle": {"line1": "1 34141U 93036LN  25348.20897789  .00006001  00000+0  15575-2 0  9997", "line2": "2 34141  74.0114  26.1009 0047032 111.8746 311.8691 14.49264225877150"}}, "geometry": {"type": "Point", "coordinates": [30.836208665527515, 21.651197143283458]}}, {"type": "Feature", "properties": {"norad_id": 34270, "name": "COSMOS 2251 DEB", "group": "cosmos-2251-debris", "lat": 57.22747870417947, "lon": 95.50194154578487, "alt_km": 639.9831358884503, "timestamp": "2025-12-15T04:01:20.845833+00:00", "meta": {"OBJECT_NAME": "COSMOS 2251 DEB", "OBJECT_ID": "1993-036LQ", "EPOCH": "2025-12-14T07:49:15.203424", "MEAN_MOTION": 14.65188226, "ECCENTRICITY": 0.0047784, "INCLINATION": 74.0114, "RA_OF_ASC_NODE": 303.5704, "ARG_OF_PERICENTER": 95.8888, "MEAN_ANOMALY": 264.773, "EPHEMERIS_TYPE": 0, "CLASSIFICATION_TYPE": "U", "NORAD_CAT_ID": 34270, "ELEMENT_SET_NO": 999, "REV_AT_EPOCH": 89119, "BSTAR": 0.00091713393, "MEAN_MOTION_DOT": 4.991e-05, "MEAN_MOTION_DDOT": 0}, "tle": {"line1": "1 34270U 93036LQ  25348.32587041  .00004991  00000+0  91713-3 0  9995", "line2": "2 34270  74.0114 303.5704 0047784  95.8888 264.7730 14.65188226891193"}}, "geometry": {"type": "Point", "coordinates": [95.50194154578487, 57.22747870417947]}}, {"type": "Feature", "properties": {"norad_id": 34271, "name": "COSMOS 2251 DEB", "group": "cosmos-2251-debris", "lat": 61.774396020699854, "lon": -17.65534898047412, "alt_km": 661.381140465809, "timestamp": "2025-12-15T04:01:20.845843+00:00", "meta": {"OBJECT_NAME": "COSMOS 2251 DEB", "OBJECT_ID": "1993-036LR", "EPOCH": "2025-12-14T00:26:20.626656", "MEAN_MOTION": 14.70801498, "ECCENTRICITY": 0.00188562, "INCLINATION": 74.0201, "RA_OF_ASC_NODE": 196.8432, "ARG_OF_PERICENTER": 250.796, "MEAN_ANOMALY": 259.8972, "EPHEMERIS_TYPE": 0, "CLASSIFICATION_TYPE": "U", "NORAD_CAT_ID": 34271, "ELEMENT_SET_NO": 999, "REV_AT_EPOCH": 88253, "BSTAR": 0.0020486903, "MEAN_MOTION_DOT": 0.00012539, "MEAN_MOTION_DDOT": 0}, "tle": {"line1": "1 34271U 93036LR  25348.01829429  .00012539  00000+0  20487-2 0  9997", "line2": "2 34271  74.0201 196.8432 0018856 250.7960 259.8972 14.70801498882533"}}, "geometry": {"type": "Point", "coordinates": [-17.65534898047412, 61.774396020699854]}}, {"type": "Feature", "properties": {"norad_id": 34273, "name": "COSMOS 2251 DEB", "group": "cosmos-2251-debris", "lat": 47.12276000412102, "lon": 100.74233840966745, "alt_km": 693.8444958417058, "timestamp": "2025-12-15T04:01:20.845853+00:00", "meta": {"OBJECT_NAME": "COSMOS 2251 DEB", "OBJECT_ID": "1993-036LT", "EPOCH": "2025-12-14T08:22:54.613344", "MEAN_MOTION": 14.61248904, "ECCENTRICITY": 0.00140141, "INCLINATION": 74.0359, "RA_OF_ASC_NODE": 84.3499, "ARG_OF_PERICENTER": 210.3879, "MEAN_ANOMALY": 216.1865, "EPHEMERIS_TYPE": 0, "CLASSIFICATION_TYPE": "U", "NORAD_CAT_ID": 34273, "ELEMENT_SET_NO": 999, "REV_AT_EPOCH": 88645, "BSTAR": 0.0010581974, "MEAN_MOTION_DOT": 5.2e-05, "MEAN_MOTION_DDOT": 0}, "tle": {"line1": "1 34273U 93036LT  25348.34924321  .00005200  00000+0  10582-2 0  9994", "line2": "2 34273  74.0359  84.3499 0014014 210.3879 216.1865 14.61248904886455"}}, "geometry": {"type": "Point", "coordinates": [100.74233840966745, 47.12276000412102]}}, {"type": "Feature", "properties": {"norad_id": 34274, "name": "COSMOS 2251 DEB", "group": "cosmos-2251-debris", "lat": 16.306311302879717, "lon": -120.92335396380683, "alt_km": 668.1055972998738, "timestamp": "2025-12-15T04:01:20.845863+00:00", "meta": {"OBJECT_NAME": "COSMOS 2251 DEB", "OBJECT_ID": "1993-036LU", "EPOCH": "2025-12-14T07:54:57.239424", "MEAN_MOTION": 14.64812733, "ECCENTRICITY": 0.00219584, "INCLINATION": 74.0044, "RA_OF_ASC_NODE": 65.5037, "ARG_OF_PERICENTER": 215.4307, "MEAN_ANOMALY": 211.6237, "EPHEMERIS_TYPE": 0, "CLASSIFICATION_TYPE": "U", "NORAD_CAT_ID": 34274, "ELEMENT_SET_NO": 999, "REV_AT_EPOCH": 88699, "BSTAR": 0.0012666827, "MEAN_MOTION_DOT": 6.759e-05, "MEAN_MOTION_DDOT": 0}, "tle": {"line1": "1 34274U 93036LU  25348.32982916  .00006759  00000+0  12667-2 0  9993", "line2": "2 34274  74.0044  65.5037 0021958 215.4307 211.6237 14.64812733886995"}}, "geometry": {"type": "Point", "coordinates": [-120.92335396380683, 16.306311302879717]}}, {"type": "Feature", "properties": {"norad_id": 34276, "name": "COSMOS 2251 DEB", "group": "cosmos-2251-debris", "lat": 33.08466316728234, "lon": 91.46259119230014, "alt_km": 715.2675326430153, "timestamp": "2025-12-15T04:01:20.845873+00:00", "meta": {"OBJECT_NAME": "COSMOS 2251 DEB", "OBJECT_ID": "1993-036LW", "EPOCH": "2025-12-14T06:35:14.621856", "MEAN_MOTION": 14.57244479, "ECCENTRICITY": 0.00225277, "INCLINATION": 74.0235, "RA_OF_ASC_NODE": 82.4025, "ARG_OF_PERICENTER": 228.9919, "MEAN_ANOMALY": 162.1315, "EPHEMERIS_TYPE": 0, "CLASSIFICATION_TYPE": "U", "NORAD_CAT_ID": 34276, "ELEMENT_SET_NO": 999, "REV_AT_EPOCH": 88615, "BSTAR": 0.00091138845, "MEAN_MOTION_DOT": 4.106e-05, "MEAN_MOTION_DDOT": 0}, "tle": {"line1": "1 34276U 93036LW  25348.27447479  .00004106  00000+0  91139-3 0  9995", "line2": "2 34276  74.0235  82.4025 0022527 228.9919 162.1315 14.57244479886158"}}, "geometry": {"type": "Point", "coordinates": [91.46259119230014, 33.08466316728234]}}, {"type": "Feature", "properties": {"norad_id": 34297, "name": "COSMOS 2251 DEB", "group": "cosmos-2251-debris", "lat": -44.452607906298134, "lon": 116.07049754997563, "alt_km": 782.404203809976, "timestamp": "2025-12-15T04:01:20.845883+00:00", "meta": {"OBJECT_NAME": "COSMOS 2251 DEB", "OBJECT_ID": "1993-036MT", "EPOCH": "2025-12-14T07:29:03.223968", "MEAN_MOTION": 14.36631119, "ECCENTRICITY": 0.00173652, "INCLINATION": 74.0487, "RA_OF_ASC_NODE": 281.3454, "ARG_OF_PERICENTER": 349.631, "MEAN_ANOMALY": 133.1094, "EPHEMERIS_TYPE": 0, "CLASSIFICATION_TYPE": "U", "NORAD_CAT_ID": 34297, "ELEMENT_SET_NO": 999, "REV_AT_EPOCH": 88087, "BSTAR": 0.00019882605, "MEAN_MOTION_DOT": 5.6e-06, "MEAN_MOTION_DDOT": 0}, "tle": {"line1": "1 34297U 93036MT  25348.31184287  .00000560  00000+0  19883-3 0  9994", "line2": "2 34297  74.0487 281.3454 0017365 349.6310 133.1094 14.36631119880879"}}, "geometry": {"type": "Point", "coordinates": [116.07049754997563, -44.452607906298134]}}, {"type": "Feature", "properties": {"norad_id": 34299, "name": "COSMOS 2251 DEB", "group": "cosmos-2251-debris", "lat": -67.77759876835408, "lon": -166.3064930561993, "alt_km": 352.3124805277339, "timestamp": "2025-12-15T04:01:20.845893+00:00", "meta": {"OBJECT_NAME": "COSMOS 2251 DEB", "OBJECT_ID": "1993-036MV", "EPOCH": "2025-12-14T05:38:22.369632", "MEAN_MOTION": 15.765285, "ECCENTRICITY": 0.00174342, "INCLINATION": 73.9751, "RA_OF_ASC_NODE": 331.1212, "ARG_OF_PERICENTER": 61.8067, "MEAN_ANOMALY": 298.4918, "EPHEMERIS_TYPE": 0, "CLASSIFICATION_TYPE": "U", "NORAD_CAT_ID": 34299, "ELEMENT_SET_NO": 999, "REV_AT_EPOCH": 89034, "BSTAR": 0.0066264586, "MEAN_MOTION_DOT": 0.01191227, "MEAN_MOTION_DDOT": 0}, "tle": {"line1": "1 34299U 93036MV  25348.23498113  .01191227  00000+0  66265-2 0  9990", "line2": "2 34299  73.9751 331.1212 0017434  61.8067 298.4918 15.76528500890345"}}, "geometry": {"type": "Point", "coordinates": [-166.3064930561993, -67.77759876835408]}}, {"type": "Feature", "properties": {"norad_id": 34301, "name": "COSMOS 2251 DEB", "group": "cosmos-2251-debris", "lat": -49.35680859792273, "lon": 1.398556398809006, "alt_km": 613.3124052012972, "timestamp": "2025-12-15T04:01:20.845903+00:00", "meta": {"OBJECT_NAME": "COSMOS 2251 DEB", "OBJECT_ID": "1993-036MX", "EPOCH": "2025-12-13T22:33:15.303744", "MEAN_MOTION": 14.84632645, "ECCENTRICITY": 0.00112397, "INCLINATION": 74.0051, "RA_OF_ASC_NODE": 164.3172, "ARG_OF_PERICENTER": 225.161, "MEAN_ANOMALY": 287.0488, "EPHEMERIS_TYPE": 0, "CLASSIFICATION_TYPE": "U", "NORAD_CAT_ID": 34301, "ELEMENT_SET_NO": 999, "REV_AT_EPOCH": 88418, "BSTAR": 0.0032969768, "MEAN_MOTION_DOT": 0.00027988, "MEAN_MOTION_DDOT": 0}, "tle": {"line1": "1 34301U 93036MX  25347.93976046  .00027988  00000+0  32970-2 0  9993", "line2": "2 34301  74.0051 164.3172 0011239 225.1610 287.0488 14.84632645884186"}}, "geometry": {"type": "Point", "coordinates": [1.398556398809006, -49.35680859792273]}}, {"type": "Feature", "properties": {"norad_id": 34302, "name": "COSMOS 2251 DEB", "group": "cosmos-2251-debris", "lat": -68.65847401047787, "lon": 72.60542479156997, "alt_km": 730.5350088845225, "timestamp": "2025-12-15T04:01:20.845914+00:00", "meta": {"OBJECT_NAME": "COSMOS 2251 DEB", "OBJECT_ID": "1993-036MY", "EPOCH": "2025-12-14T08:28:59.063232", "MEAN_MOTION": 14.39339461, "ECCENTRICITY": 0.0078835, "INCLINATION": 74.178, "RA_OF_ASC_NODE": 120.6272, "ARG_OF_PERICENTER": 335.4162, "MEAN_ANOMALY": 52.9384, "EPHEMERIS_TYPE": 0, "CLASSIFICATION_TYPE": "U", "NORAD_CAT_ID": 34302, "ELEMENT_SET_NO": 999, "REV_AT_EPOCH": 87744, "BSTAR": 0.00073214139, "MEAN_MOTION_DOT": 2.334e-05, "MEAN_MOTION_DDOT": 0}, "tle": {"line1": "1 34302U 93036MY  25348.35346138  .00002334  00000+0  73214-3 0  9999", "line2": "2 34302  74.1780 120.6272 0078835 335.4162  52.9384 14.39339461877440"}}, "geometry": {"type": "Point", "coordinates": [72.60542479156997, -68.65847401047787]}}]}